{
    "links": {
        "self": "http://www.neowsapp.com/rest/v1/neo/3717074?api_key=iIulBulltgU6a56xZRHN4H3l9WmuAYTsLGpBGhQ2"
    },
    "id": "3717074",
    "neo_reference_id": "3717074",
    "name": "(2015 FB345)",
    "designation": "2015 FB345",
    "nasa_jpl_url": "http://ssd.jpl.nasa.gov/sbdb.cgi?sstr=3717074",
    "absolute_magnitude_h": 23.6,
    "estimated_diameter": {
        "kilometers": {
            "estimated_diameter_min": 0.0506471459,
            "estimated_diameter_max": 0.1132504611
        },
        "meters": {
            "estimated_diameter_min": 50.6471458835,
            "estimated_diameter_max": 113.2504610618
        },
        "miles": {
            "estimated_diameter_min": 0.0314706677,
            "estimated_diameter_max": 0.0703705522
        },
        "feet": {
            "estimated_diameter_min": 166.1651821003,
            "estimated_diameter_max": 371.5566426699
        }
    },
    "is_potentially_hazardous_asteroid": false,
    "close_approach_data": [
        {
            "close_approach_date": "2015-03-27",
            "close_approach_date_full": "2015-Mar-27 17:21",
            "epoch_date_close_approach": 1427476860000,
            "relative_velocity": {
                "kilometers_per_second": "15.6063719351",
                "kilometers_per_hour": "56182.938966216",
                "miles_per_hour": "34909.8933815357"
            },
            "miss_distance": {
                "astronomical": "0.0329427392",
                "lunar": "12.8147255488",
                "kilometers": "4928163.616285504",
                "miles": "3062218.8741837952"
            },
            "orbiting_body": "Earth"
        },
        {
            "close_approach_date": "2082-08-23",
            "close_approach_date_full": "2082-Aug-23 01:29",
            "epoch_date_close_approach": 3554674140000,
            "relative_velocity": {
                "kilometers_per_second": "10.9868996067",
                "kilometers_per_hour": "39552.8385842748",
                "miles_per_hour": "24576.5957303234"
            },
            "miss_distance": {
                "astronomical": "0.2314526193",
                "lunar": "90.0350689077",
                "kilometers": "34624818.853200891",
                "miles": "21514864.7778426558"
            },
            "orbiting_body": "Earth"
        },
        {
            "close_approach_date": "2174-10-19",
            "close_approach_date_full": "2174-Oct-19 03:59",
            "epoch_date_close_approach": 6462820740000,
            "relative_velocity": {
                "kilometers_per_second": "30.7240584387",
                "kilometers_per_hour": "110606.6103793762",
                "miles_per_hour": "68726.6463215629"
            },
            "miss_distance": {
                "astronomical": "0.4998937607",
                "lunar": "194.4586729123",
                "kilometers": "74783041.827009709",
                "miles": "46468027.4402396242"
            },
            "orbiting_body": "Earth"
        }
    ],
    "orbital_data": {
        "orbit_id": "3",
        "orbit_determination_date": "2017-04-06 08:34:35",
        "first_observation_date": "2015-03-23",
        "last_observation_date": "2015-03-24",
        "data_arc_in_days": 1,
        "observations_used": 30,
        "orbit_uncertainty": "8",
        "minimum_orbit_intersection": ".0202515",
        "jupiter_tisserand_invariant": "4.573",
        "epoch_osculation": "2457105.5",
        "eccentricity": ".5162915187689592",
        "semi_major_axis": "1.412307874901835",
        "inclination": "5.485694989405267",
        "ascending_node_longitude": "346.7562753298347",
        "orbital_period": "613.0452022221102",
        "perihelion_distance": ".6831452971994052",
        "perihelion_argument": "285.7974149603244",
        "aphelion_distance": "2.141470452604264",
        "perihelion_time": "2457162.625668494725",
        "mean_anomaly": "326.4539570923025",
        "mean_motion": ".5872323911762215",
        "equinox": "J2000",
        "orbit_class": {
            "orbit_class_type": "APO",
            "orbit_class_description": "Near-Earth asteroid orbits which cross the Earth’s orbit similar to that of 1862 Apollo",
            "orbit_class_range": "a (semi-major axis) > 1.0 AU; q (perihelion) < 1.017 AU"
        }
    },
    "is_sentry_object": false
}